{"type": "FeatureCollection", "features": [ {"type": "Feature", "properties": {"norad_id": 66658, "name": "2025-274J", "group": "last-30-days", "lat": -79.7608711548638, "lon": 41.6726835521622, "alt_km": 590.1895967175533, "timestamp": "2025-12-09T05:43:19.510791+00:00", "meta": {"OBJECT_NAME": "2025-274J", "OBJECT_ID": "2025-274J", "EPOCH": "2025-12-08T18:53:29.669280", "MEAN_MOTION": 14.92588768, "ECCENTRICITY": 0.0011553, "INCLINATION": 97.7386, "RA_OF_ASC_NODE": 270.0641, "ARG_OF_PERICENTER": 294.1578, "MEAN_ANOMALY": 65.8433, "EPHEMERIS_TYPE": 0, "CLASSIFICATION_TYPE": "U", "NORAD_CAT_ID": 66658, "ELEMENT_SET_NO": 999, "REV_AT_EPOCH": 181, "BSTAR": 0.00045754, "MEAN_MOTION_DOT": 4.657e-05, "MEAN_MOTION_DDOT": 0}, "tle": {"line1": "1 66658U 25274J   25342.78714895  .00004657  00000+0  45754-3 0  9995", "line2": "2 66658  97.7386 270.0641 0011553 294.1578  65.8433 14.92588768  1811"}}, "geometry": {"type": "Point", "coordinates": [41.6726835521622, -79.7608711548638]}}, {"type": "Feature", "properties": {"norad_id": 66659, "name": "JACK K", "group": "last-30-days", "lat": -82.08026933140904, "lon": -11.655688101163916, "alt_km": 588.7010170906369, "timestamp": "2025-12-09T05:43:19.510801+00:00", "meta": {"OBJECT_NAME": "JACK K", "OBJECT_ID": "2025-274K", "EPOCH": "2025-12-08T18:51:19.424736", "MEAN_MOTION": 14.92774794, "ECCENTRICITY": 0.0012295, "INCLINATION": 97.7388, "RA_OF_ASC_NODE": 270.0665, "ARG_OF_PERICENTER": 295.3598, "MEAN_ANOMALY": 64.6348, "EPHEMERIS_TYPE": 0, "CLASSIFICATION_TYPE": "U", "NORAD_CAT_ID": 66659, "ELEMENT_SET_NO": 999, "REV_AT_EPOCH": 181, "BSTAR": 0.00045217, "MEAN_MOTION_DOT": 4.624e-05, "MEAN_MOTION_DDOT": 0}, "tle": {"line1": "1 66659U 25274K   25342.78564149  .00004624  00000+0  45217-3 0  9999", "line2": "2 66659  97.7388 270.0665 0012295 295.3598  64.6348 14.92774794  1817"}}, "geometry": {"type": "Point", "coordinates": [-11.655688101163916, -82.08026933140904]}}, {"type": "Feature", "properties": {"norad_id": 66660, "name": "K-HERO", "group": "last-30-days", "lat": -78.5820208540805, "lon": -47.1575176166683, "alt_km": 587.5051207151728, "timestamp": "2025-12-09T05:43:19.510811+00:00", "meta": {"OBJECT_NAME": "K-HERO", "OBJECT_ID": "2025-274L", "EPOCH": "2025-12-08T18:49:34.643136", "MEAN_MOTION": 14.92926161, "ECCENTRICITY": 0.0012904, "INCLINATION": 97.7392, "RA_OF_ASC_NODE": 270.0685, "ARG_OF_PERICENTER": 295.918, "MEAN_ANOMALY": 64.0709, "EPHEMERIS_TYPE": 0, "CLASSIFICATION_TYPE": "U", "NORAD_CAT_ID": 66660, "ELEMENT_SET_NO": 999, "REV_AT_EPOCH": 181, "BSTAR": 0.00050044, "MEAN_MOTION_DOT": 5.145e-05, "MEAN_MOTION_DDOT": 0}, "tle": {"line1": "1 66660U 25274L   25342.78442874  .00005145  00000+0  50044-3 0  9994", "line2": "2 66660  97.7392 270.0685 0012904 295.9180  64.0709 14.92926161  1818"}}, "geometry": {"type": "Point", "coordinates": [-47.1575176166683, -78.5820208540805]}}, {"type": "Feature", "properties": {"norad_id": 66661, "name": "SNUGLITE-III", "group": "last-30-days", "lat": -72.93819747142517, "lon": -63.18069256983274, "alt_km": 586.3809035496743, "timestamp": "2025-12-09T05:43:19.510824+00:00", "meta": {"OBJECT_NAME": "SNUGLITE-III", "OBJECT_ID": "2025-274M", "EPOCH": "2025-12-08T18:47:48.327936", "MEAN_MOTION": 14.93068876, "ECCENTRICITY": 0.0013555, "INCLINATION": 97.739, "RA_OF_ASC_NODE": 270.0699, "ARG_OF_PERICENTER": 296.9789, "MEAN_ANOMALY": 63.0046, "EPHEMERIS_TYPE": 0, "CLASSIFICATION_TYPE": "U", "NORAD_CAT_ID": 66661, "ELEMENT_SET_NO": 999, "REV_AT_EPOCH": 181, "BSTAR": 0.00036148, "MEAN_MOTION_DOT": 3.714e-05, "MEAN_MOTION_DDOT": 0}, "tle": {"line1": "1 66661U 25274M   25342.78319824  .00003714  00000+0  36148-3 0  9992", "line2": "2 66661  97.7390 270.0699 0013555 296.9789  63.0046 14.93068876  1815"}}, "geometry": {"type": "Point", "coordinates": [-63.18069256983274, -72.93819747142517]}}, {"type": "Feature", "properties": {"norad_id": 66662, "name": "2025-274N", "group": "last-30-days", "lat": -70.4760292107638, "lon": -66.92908901344055, "alt_km": 585.841515043172, "timestamp": "2025-12-09T05:43:19.510834+00:00", "meta": {"OBJECT_NAME": "2025-274N", "OBJECT_ID": "2025-274N", "EPOCH": "2025-12-08T18:47:05.648064", "MEAN_MOTION": 14.93116129, "ECCENTRICITY": 0.0013976, "INCLINATION": 97.7391, "RA_OF_ASC_NODE": 270.0706, "ARG_OF_PERICENTER": 296.2854, "MEAN_ANOMALY": 63.6929, "EPHEMERIS_TYPE": 0, "CLASSIFICATION_TYPE": "U", "NORAD_CAT_ID": 66662, "ELEMENT_SET_NO": 999, "REV_AT_EPOCH": 181, "BSTAR": 0.00029912, "MEAN_MOTION_DOT": 3.067e-05, "MEAN_MOTION_DDOT": 0}, "tle": {"line1": "1 66662U 25274N   25342.78270426  .00003067  00000+0  29912-3 0  9999", "line2": "2 66662  97.7391 270.0706 0013976 296.2854  63.6929 14.93116129  1810"}}, "geometry": {"type": "Point", "coordinates": [-66.92908901344055, -70.4760292107638]}}, {"type": "Feature", "properties": {"norad_id": 66663, "name": "KSLV-II R/B", "group": "last-30-days", "lat": 60.0875437259284, "lon": 104.29233981227271, "alt_km": 598.005532324446, "timestamp": "2025-12-09T05:43:19.510859+00:00", "meta": {"OBJECT_NAME": "KSLV-II R/B", "OBJECT_ID": "2025-274P", "EPOCH": "2025-12-06T19:27:04.446432", "MEAN_MOTION": 14.97226496, "ECCENTRICITY": 0.00484111, "INCLINATION": 97.7412, "RA_OF_ASC_NODE": 268.2109, "ARG_OF_PERICENTER": 339.2416, "MEAN_ANOMALY": 20.6839, "EPHEMERIS_TYPE": 0, "CLASSIFICATION_TYPE": "U", "NORAD_CAT_ID": 66663, "ELEMENT_SET_NO": 999, "REV_AT_EPOCH": 152, "BSTAR": 0.00053388811, "MEAN_MOTION_DOT": 6.269e-05, "MEAN_MOTION_DDOT": 0}, "tle": {"line1": "1 66663U 25274P   25340.81046813  .00006269  00000+0  53389-3 0  9995", "line2": "2 66663  97.7412 268.2109 0048411 339.2416  20.6839 14.97226496  1529"}}, "geometry": {"type": "Point", "coordinates": [104.29233981227271, 60.0875437259284]}}, {"type": "Feature", "properties": {"norad_id": 66664, "name": "SOYUZ-MS 28", "group": "last-30-days", "lat": -49.19102113621173, "lon": 93.23946883764955, "alt_km": 421.8224168522929, "timestamp": "2025-12-09T05:43:19.510872+00:00", "meta": {"OBJECT_NAME": "SOYUZ-MS 28", "OBJECT_ID": "2025-275A", "EPOCH": "2025-12-08T13:01:02.621280", "MEAN_MOTION": 15.49420853, "ECCENTRICITY": 0.0003394, "INCLINATION": 51.6307, "RA_OF_ASC_NODE": 163.2617, "ARG_OF_PERICENTER": 220.7658, "MEAN_ANOMALY": 139.3077, "EPHEMERIS_TYPE": 0, "CLASSIFICATION_TYPE": "U", "NORAD_CAT_ID": 66664, "ELEMENT_SET_NO": 999, "REV_AT_EPOCH": 179, "BSTAR": 0.00023028, "MEAN_MOTION_DOT": 0.00012445, "MEAN_MOTION_DDOT": 0}, "tle": {"line1": "1 66664U 25275A   25342.54239145  .00012445  00000+0  23028-3 0  9991", "line2": "2 66664  51.6307 163.2617 0003394 220.7658 139.3077 15.49420853  1795"}}, "geometry": {"type": "Point", "coordinates": [93.23946883764955, -49.19102113621173]}}, {"type": "Feature", "properties": {"norad_id": 66820, "name": "KOMPSAT-7", "group": "last-30-days", "lat": -6.352072324522474, "lon": 108.31917647879627, "alt_km": 571.2989980842576, "timestamp": "2025-12-09T05:43:19.510883+00:00", "meta": {"OBJECT_NAME": "KOMPSAT-7", "OBJECT_ID": "2025-279A", "EPOCH": "2025-12-08T14:28:04.424736", "MEAN_MOTION": 14.98369604, "ECCENTRICITY": 0.0009431, "INCLINATION": 97.64, "RA_OF_ASC_NODE": 288.553, "ARG_OF_PERICENTER": 235.5976, "MEAN_ANOMALY": 124.4356, "EPHEMERIS_TYPE": 0, "CLASSIFICATION_TYPE": "U", "NORAD_CAT_ID": 66820, "ELEMENT_SET_NO": 999, "REV_AT_EPOCH": 103, "BSTAR": 0.00038346512, "MEAN_MOTION_DOT": 4.517e-05, "MEAN_MOTION_DDOT": 0}, "tle": {"line1": "1 66820U 25279A   25342.60282899  .00004517  00000+0  38347-3 0  9991", "line2": "2 66820  97.6400 288.5530 0009431 235.5976 124.4356 14.98369604  1034"}}, "geometry": {"type": "Point", "coordinates": [108.31917647879627, -6.352072324522474]}}, {"type": "Feature", "properties": {"norad_id": 66877, "name": "ZQ-3 R/B", "group": "last-30-days", "lat": -10.838877849614597, "lon": 63.8285469920457, "alt_km": 1099.244405722381, "timestamp": "2025-12-09T05:43:19.510894+00:00", "meta": {"OBJECT_NAME": "ZQ-3 R/B", "OBJECT_ID": "2025-282A", "EPOCH": "2025-12-08T14:53:29.352768", "MEAN_MOTION": 14.48659951, "ECCENTRICITY": 0.0824232, "INCLINATION": 56.9533, "RA_OF_ASC_NODE": 73.3202, "ARG_OF_PERICENTER": 212.8744, "MEAN_ANOMALY": 141.8352, "EPHEMERIS_TYPE": 0, "CLASSIFICATION_TYPE": "U", "NORAD_CAT_ID": 66877, "ELEMENT_SET_NO": 999, "REV_AT_EPOCH": 79, "BSTAR": 0.00024383, "MEAN_MOTION_DOT": 0.01149741, "MEAN_MOTION_DDOT": 7.3104e-06}, "tle": {"line1": "1 66877U 25282A   25342.62047862  .01149741  73104-5  24383-3 0  9994", "line2": "2 66877  56.9533  73.3202 0824232 212.8744 141.8352 14.48659951   795"}}, "geometry": {"type": "Point", "coordinates": [63.8285469920457, -10.838877849614597]}}, {"type": "Feature", "properties": {"norad_id": 66906, "name": "1998-067XS", "group": "last-30-days", "lat": -41.240876462267565, "lon": 115.78192583951311, "alt_km": 421.33353809391974, "timestamp": "2025-12-09T05:43:19.510907+00:00", "meta": {"OBJECT_NAME": "1998-067XS", "OBJECT_ID": "1998-067XS", "EPOCH": "2025-12-08T19:08:19.953024", "MEAN_MOTION": 15.50265121, "ECCENTRICITY": 0.0004022, "INCLINATION": 51.6298, "RA_OF_ASC_NODE": 161.9654, "ARG_OF_PERICENTER": 184.9972, "MEAN_ANOMALY": 175.0977, "EPHEMERIS_TYPE": 0, "CLASSIFICATION_TYPE": "U", "NORAD_CAT_ID": 66906, "ELEMENT_SET_NO": 999, "REV_AT_EPOCH": 100, "BSTAR": 0.00055816, "MEAN_MOTION_DOT": 0.00031833, "MEAN_MOTION_DDOT": 0}, "tle": {"line1": "1 66906U 98067XS  25342.79745316  .00031833  00000+0  55816-3 0  9990", "line2": "2 66906  51.6298 161.9654 0004022 184.9972 175.0977 15.50265121  1005"}}, "geometry": {"type": "Point", "coordinates": [115.78192583951311, -41.240876462267565]}}]}